{
  "type": "FeatureCollection",
  "features": [
    {
      "type": "Feature",
      "properties": {
        "norad_id": 30505,
        "name": "FENGYUN 1C DEB",
        "group": "fengyun-1c-debris",
        "lat": -33.41464155119224,
        "lon": -110.57269586531392,
        "alt_km": 778.3042792817532,
        "timestamp": "2025-12-21T14:40:48.193292+00:00",
        "meta_object_name": "FENGYUN 1C DEB",
        "meta_object_id": "1999-025AHT",
        "meta_epoch": "2025-12-21T03:51:58.417920",
        "meta_mean_motion": 14.22089926,
        "meta_eccentricity": 0.00641203,
        "meta_inclination": 98.9254,
        "meta_ra_of_asc_node": 74.9225,
        "meta_arg_of_pericenter": 218.1341,
        "meta_mean_anomaly": 210.2383,
        "meta_ephemeris_type": 0,
        "meta_classification_type": "U",
        "meta_norad_cat_id": 30505,
        "meta_element_set_no": 999,
        "meta_rev_at_epoch": 97043,
        "meta_bstar": 0.0011410693,
        "meta_mean_motion_dot": 2.534e-05,
        "meta_mean_motion_ddot": 0,
        "tle_line1": "1 30505U 99025AHT 25355.16109280  .00002534  00000+0  11411-2 0  9998",
        "tle_line2": "2 30505  98.9254  74.9225 0064120 218.1341 210.2383 14.22089926970439"
      },
      "geometry": {
        "type": "Point",
        "coordinates": [
          -110.57269586531392,
          -33.41464155119224
        ]
      }
    },
    {
      "type": "Feature",
      "properties": {
        "norad_id": 30506,
        "name": "FENGYUN 1C DEB",
        "group": "fengyun-1c-debris",
        "lat": 5.654365307864783,
        "lon": -178.69590815507306,
        "alt_km": 909.2797750185036,
        "timestamp": "2025-12-21T14:40:48.193303+00:00",
        "meta_object_name": "FENGYUN 1C DEB",
        "meta_object_id": "1999-025AHU",
        "meta_epoch": "2025-12-20T07:14:22.755264",
        "meta_mean_motion": 14.0865902,
        "meta_eccentricity": 0.00699626,
        "meta_inclination": 98.7566,
        "meta_ra_of_asc_node": 359.1576,
        "meta_arg_of_pericenter": 326.5277,
        "meta_mean_anomaly": 48.43,
        "meta_ephemeris_type": 0,
        "meta_classification_type": "U",
        "meta_norad_cat_id": 30506,
        "meta_element_set_no": 999,
        "meta_rev_at_epoch": 96928,
        "meta_bstar": 0.00029950525,
        "meta_mean_motion_dot": 4.84e-06,
        "meta_mean_motion_ddot": 0,
        "tle_line1": "1 30506U 99025AHU 25354.30165226  .00000484  00000+0  29951-3 0  9997",
        "tle_line2": "2 30506  98.7566 359.1576 0069962 326.5277  48.4300 14.08659020969285"
      },
      "geometry": {
        "type": "Point",
        "coordinates": [
          -178.69590815507306,
          5.654365307864783
        ]
      }
    },
    {
      "type": "Feature",
      "properties": {
        "norad_id": 30507,
        "name": "FENGYUN 1C DEB",
        "group": "fengyun-1c-debris",
        "lat": 72.35120653226274,
        "lon": 30.23426389364117,
        "alt_km": 818.8962873870814,
        "timestamp": "2025-12-21T14:40:48.193313+00:00",
        "meta_object_name": "FENGYUN 1C DEB",
        "meta_object_id": "1999-025AHV",
        "meta_epoch": "2025-12-21T04:25:45.178752",
        "meta_mean_motion": 14.13212505,
        "meta_eccentricity": 0.01284654,
        "meta_inclination": 99.0132,
        "meta_ra_of_asc_node": 59.7299,
        "meta_arg_of_pericenter": 152.6898,
        "meta_mean_anomaly": 271.7466,
        "meta_ephemeris_type": 0,
        "meta_classification_type": "U",
        "meta_norad_cat_id": 30507,
        "meta_element_set_no": 999,
        "meta_rev_at_epoch": 96617,
        "meta_bstar": 0.00078672925,
        "meta_mean_motion_dot": 1.549e-05,
        "meta_mean_motion_ddot": 0,
        "tle_line1": "1 30507U 99025AHV 25355.18455068  .00001549  00000+0  78673-3 0  9999",
        "tle_line2": "2 30507  99.0132  59.7299 0128465 152.6898 271.7466 14.13212505966173"
      },
      "geometry": {
        "type": "Point",
        "coordinates": [
          30.23426389364117,
          72.35120653226274
        ]
      }
    },
    {
      "type": "Feature",
      "properties": {
        "norad_id": 30509,
        "name": "FENGYUN 1C DEB",
        "group": "fengyun-1c-debris",
        "lat": 71.39749858529837,
        "lon": -159.3580586170481,
        "alt_km": 799.296140247011,
        "timestamp": "2025-12-21T14:40:48.193323+00:00",
        "meta_object_name": "FENGYUN 1C DEB",
        "meta_object_id": "1999-025AHX",
        "meta_epoch": "2025-12-21T03:06:36.876672",
        "meta_mean_motion": 14.07702151,
        "meta_eccentricity": 0.01023288,
        "meta_inclination": 98.4657,
        "meta_ra_of_asc_node": 226.4522,
        "meta_arg_of_pericenter": 39.8305,
        "meta_mean_anomaly": 111.2509,
        "meta_ephemeris_type": 0,
        "meta_classification_type": "U",
        "meta_norad_cat_id": 30509,
        "meta_element_set_no": 999,
        "meta_rev_at_epoch": 95840,
        "meta_bstar": 0.0015030071,
        "meta_mean_motion_dot": 2.627e-05,
        "meta_mean_motion_ddot": 0,
        "tle_line1": "1 30509U 99025AHX 25355.12959348  .00002627  00000+0  15030-2 0  9990",
        "tle_line2": "2 30509  98.4657 226.4522 0102328  39.8305 111.2509 14.07702151958408"
      },
      "geometry": {
        "type": "Point",
        "coordinates": [
          -159.3580586170481,
          71.39749858529837
        ]
      }
    },
    {
      "type": "Feature",
      "properties": {
        "norad_id": 30510,
        "name": "FENGYUN 1C DEB",
        "group": "fengyun-1c-debris",
        "lat": -68.48705515152037,
        "lon": 32.328731692973214,
        "alt_km": 904.7686385126681,
        "timestamp": "2025-12-21T14:40:48.193333+00:00",
        "meta_object_name": "FENGYUN 1C DEB",
        "meta_object_id": "1999-025AHY",
        "meta_epoch": "2025-12-20T00:11:11.568192",
        "meta_mean_motion": 14.12882966,
        "meta_eccentricity": 0.0078573,
        "meta_inclination": 99.2444,
        "meta_ra_of_asc_node": 6.269,
        "meta_arg_of_pericenter": 146.031,
        "meta_mean_anomaly": 269.4943,
        "meta_ephemeris_type": 0,
        "meta_classification_type": "U",
        "meta_norad_cat_id": 30510,
        "meta_element_set_no": 999,
        "meta_rev_at_epoch": 96677,
        "meta_bstar": 0.00090593,
        "meta_mean_motion_dot": 1.689e-05,
        "meta_mean_motion_ddot": 0,
        "tle_line1": "1 30510U 99025AHY 25354.00777278  .00001689  00000+0  90593-3 0  9993",
        "tle_line2": "2 30510  99.2444   6.2690 0078573 146.0310 269.4943 14.12882966966770"
      },
      "geometry": {
        "type": "Point",
        "coordinates": [
          32.328731692973214,
          -68.48705515152037
        ]
      }
    },
    {
      "type": "Feature",
      "properties": {
        "norad_id": 30514,
        "name": "FENGYUN 1C DEB",
        "group": "fengyun-1c-debris",
        "lat": 38.82118518239943,
        "lon": 12.071683528416246,
        "alt_km": 663.9838141314685,
        "timestamp": "2025-12-21T14:40:48.193343+00:00",
        "meta_object_name": "FENGYUN 1C DEB",
        "meta_object_id": "1999-025AJC",
        "meta_epoch": "2025-12-21T01:06:29.954592",
        "meta_mean_motion": 14.34379935,
        "meta_eccentricity": 0.01743189,
        "meta_inclination": 98.4121,
        "meta_ra_of_asc_node": 18.3593,
        "meta_arg_of_pericenter": 69.5313,
        "meta_mean_anomaly": 292.4491,
        "meta_ephemeris_type": 0,
        "meta_classification_type": "U",
        "meta_norad_cat_id": 30514,
        "meta_element_set_no": 999,
        "meta_rev_at_epoch": 98344,
        "meta_bstar": 0.00033760263,
        "meta_mean_motion_dot": 1.081e-05,
        "meta_mean_motion_ddot": 0,
        "tle_line1": "1 30514U 99025AJC 25355.04618003  .00001081  00000+0  33760-3 0  9991",
        "tle_line2": "2 30514  98.4121  18.3593 0174318  69.5313 292.4491 14.34379935983447"
      },
      "geometry": {
        "type": "Point",
        "coordinates": [
          12.071683528416246,
          38.82118518239943
        ]
      }
    },
    {
      "type": "Feature",
      "properties": {
        "norad_id": 30515,
        "name": "FENGYUN 1C DEB",
        "group": "fengyun-1c-debris",
        "lat": 53.379509796147545,
        "lon": 62.32139977206395,
        "alt_km": 901.861178078474,
        "timestamp": "2025-12-21T14:40:48.193353+00:00",
        "meta_object_name": "FENGYUN 1C DEB",
        "meta_object_id": "1999-025AJD",
        "meta_epoch": "2025-12-21T02:30:40.767264",
        "meta_mean_motion": 13.6381732,
        "meta_eccentricity": 0.04969973,
        "meta_inclination": 98.5093,
        "meta_ra_of_asc_node": 230.2548,
        "meta_arg_of_pericenter": 52.509,
        "meta_mean_anomaly": 99.7027,
        "meta_ephemeris_type": 0,
        "meta_classification_type": "U",
        "meta_norad_cat_id": 30515,
        "meta_element_set_no": 999,
        "meta_rev_at_epoch": 93444,
        "meta_bstar": 0.00074286091,
        "meta_mean_motion_dot": 1.334e-05,
        "meta_mean_motion_ddot": 0,
        "tle_line1": "1 30515U 99025AJD 25355.10463851  .00001334  00000+0  74286-3 0  9997",
        "tle_line2": "2 30515  98.5093 230.2548 0496997  52.5090  99.7027 13.63817320934441"
      },
      "geometry": {
        "type": "Point",
        "coordinates": [
          62.32139977206395,
          53.379509796147545
        ]
      }
    }
  ]
}